NORAD_CAT_ID,OBJECT_NAME,OBJECT_TYPE,EPOCH,MEAN_MOTION,ECCENTRICITY,INCLINATION,RA_OF_ASC_NODE,ARG_OF_PERICENTER,MEAN_ANOMALY,BSTAR,MEAN_MOTION_DOT,MEAN_MOTION_DDOT,TLE_LINE0,TLE_LINE1,TLE_LINE2,SEMIMAJOR_AXIS,PERIOD,APOGEE,PERIGEE,DECAYED
55955.0,STARLINK-5878,PAYLOAD,2024-06-11 03:25:28,14.98330669,0.0002956,70.0003,69.4559,266.7123,93.3697,3.9022e-05,3.73e-06,0.0,0 STARLINK-5878,1 55955U 23037AT  24163.14269624  .00000373  00000-0  39022-4 0  9997,2 55955  70.0003  69.4559 0002956 266.7123  93.3697 14.98330669 69469,6950.191,96.107,574.11,570.001,0.0
55955.0,STARLINK-5878,PAYLOAD,2024-06-11 11:26:09,14.98332879,0.0003097,70.0,68.6142,268.1455,91.935,2.1597e-05,1.65e-06,0.0,0 STARLINK-5878,1 55955U 23037AT  24163.47649448  .00000165  00000-0  21597-4 0  9996,2 55955  70.0000  68.6142 0003097 268.1455  91.9350 14.98332879 69179,6950.184,96.107,574.201,569.897,0.0
55955.0,STARLINK-5878,PAYLOAD,2024-06-12 03:27:29,14.98336591,0.0002992,70.0,66.9308,266.0965,93.9852,8.2805e-05,8.95e-06,0.0,0 STARLINK-5878,1 55955U 23037AT  24164.14408975  .00000895  00000-0  82805-4 0  9998,2 55955  70.0000  66.9308 0002992 266.0965  93.9852 14.98336591 69613,6950.173,96.107,574.117,569.958,0.0
55955.0,STARLINK-5878,PAYLOAD,2024-06-12 11:28:10,14.98330108,0.0002761,70.0006,66.0892,271.4189,88.6653,-1.0125e-05,-2.14e-06,0.0,0 STARLINK-5878,1 55955U 23037AT  24164.47789649 -.00000214  00000-0 -10125-4 0  9997,2 55955  70.0006  66.0892 0002761 271.4189  88.6653 14.98330108 69663,6950.193,96.107,573.977,570.139,0.0
55955.0,STARLINK-5878,PAYLOAD,2024-06-12 22:41:06,14.98325835,0.0002819,70.0003,64.9109,270.7129,89.3707,-8.7667e-06,-1.98e-06,0.0,0 STARLINK-5878,1 55955U 23037AT  24164.94521912 -.00000198  00000-0 -87667-5 0  9993,2 55955  70.0003  64.9109 0002819 270.7129  89.3707 14.98325835 69397,6950.206,96.107,574.03,570.112,0.0
55955.0,STARLINK-5878,PAYLOAD,2024-06-13 03:29:31,14.98326093,0.000281,70.0004,64.4061,269.9047,90.179,-4.7639e-05,-6.61e-06,0.0,0 STARLINK-5878,1 55955U 23037AT  24165.14550051 -.00000661  00000-0 -47639-4 0  9991,2 55955  70.0004  64.4061 0002810 269.9047  90.1790 14.98326093 69423,6950.205,96.107,574.023,570.117,0.0
55955.0,STARLINK-5878,PAYLOAD,2024-06-13 22:43:08,14.9833478,0.0002363,70.0006,62.3863,275.9779,84.1111,-0.00026231,-3.222e-05,0.0,0 STARLINK-5878,1 55955U 23037AT  24165.94662326 -.00003222  00000-0 -26231-3 0  9998,2 55955  70.0006  62.3863 0002363 275.9779  84.1111 14.98334780 69549,6950.178,96.107,573.685,570.401,0.0
55955.0,STARLINK-5878,PAYLOAD,2024-06-14 09:56:04,14.98339768,0.0002825,70.0006,61.2081,266.4841,93.5995,-0.00010776,-1.379e-05,0.0,0 STARLINK-5878,1 55955U 23037AT  24166.41393519 -.00001379  00000-0 -10776-3 0  9994,2 55955  70.0006  61.2081 0002825 266.4841  93.5995 14.98339768 69610,6950.163,96.106,573.991,570.064,0.0
55955.0,STARLINK-5878,PAYLOAD,2024-06-14 22:45:08,14.98335729,0.0002966,70.0001,59.861,269.933,90.1489,0.00014763,1.669e-05,0.0,0 STARLINK-5878,1 55955U 23037AT  24166.94800954  .00001669  00000-0  14763-3 0  9998,2 55955  70.0001  59.8610 0002966 269.9330  90.1489 14.98335729 69695,6950.175,96.107,574.102,569.979,0.0
55955.0,STARLINK-5878,PAYLOAD,2024-06-15 09:58:04,14.98336314,0.0002981,70.0002,58.6809,278.3065,81.7756,5.6491e-05,5.81e-06,0.0,0 STARLINK-5878,1 55955U 23037AT  24167.41532995  .00000581  00000-0  56491-4 0  9995,2 55955  70.0002  58.6809 0002981 278.3065  81.7756 14.98336314 69761,6950.173,96.107,574.11,569.967,0.0
55955.0,STARLINK-5878,PAYLOAD,2024-06-15 22:47:09,14.98325501,0.0002833,70.0012,57.3382,269.1817,90.9018,6.8706e-05,7.27e-06,0.0,0 STARLINK-5878,1 55955U 23037AT  24167.94941657  .00000727  00000-0  68706-4 0  9996,2 55955  70.0012  57.3382 0002833 269.1817  90.9018 14.98325501 69841,6950.207,96.107,574.041,570.103,0.0
55955.0,STARLINK-5878,PAYLOAD,2024-06-16 01:59:25,14.98321415,0.0002973,70.0011,57.0017,271.5256,88.5562,0.00011666,1.299e-05,0.0,0 STARLINK-5878,1 55955U 23037AT  24168.08293834  .00001299  00000-0  11666-3 0  9996,2 55955  70.0011  57.0017 0002973 271.5256  88.5562 14.98321415 69860,6950.219,96.108,574.151,570.018,0.0
55955.0,STARLINK-5878,PAYLOAD,2024-06-16 22:49:10,14.98334024,0.0002799,70.0005,54.8114,263.2993,96.7847,-0.00010441,-1.339e-05,0.0,0 STARLINK-5878,1 55955U 23037AT  24168.95081462 -.00001339  00000-0 -10441-3 0  9991,2 55955  70.0005  54.8114 0002799 263.2993  96.7847 14.98334024 69999,6950.18,96.107,573.991,570.1,0.0
55955.0,STARLINK-5878,PAYLOAD,2024-06-17 21:15:03,14.9831676,0.0002911,70.0002,52.4538,268.458,91.6246,0.00019289,2.208e-05,0.0,0 STARLINK-5878,1 55955U 23037AT  24169.88545811  .00002208  00000-0  19289-3 0  9990,2 55955  70.0002  52.4538 0002911 268.4580  91.6246 14.98316760 70474,6950.234,96.108,574.122,570.076,0.0
55955.0,STARLINK-5878,PAYLOAD,2024-06-17 22:51:11,14.98324443,0.0002957,70.0002,52.2863,268.2284,91.8536,0.00010533,1.164e-05,0.0,0 STARLINK-5878,1 55955U 23037AT  24169.95221459  .00001164  00000-0  10533-3 0  9990,2 55955  70.0002  52.2863 0002957 268.2284  91.8536 14.98324443 70147,6950.21,96.107,574.13,570.02,0.0
55955.0,STARLINK-5878,PAYLOAD,2024-06-18 02:03:27,14.98330033,0.0002936,70.0002,51.9496,268.8823,91.2,2.7345e-05,2.33e-06,0.0,0 STARLINK-5878,1 55955U 23037AT  24170.08573337  .00000233  00000-0  27345-4 0  9997,2 55955  70.0002  51.9496 0002936 268.8823  91.2000 14.98330033 70509,6950.193,96.107,574.098,570.017,0.0
55955.0,STARLINK-5878,PAYLOAD,2024-06-18 10:04:07,14.98329648,0.0003005,70.0,51.1081,268.9441,91.1374,4.4602e-05,4.39e-06,0.0,0 STARLINK-5878,1 55955U 23037AT  24170.41953287  .00000439  00000-0  44602-4 0  9993,2 55955  70.0000  51.1081 0003005 268.9441  91.1374 14.98329648 70215,6950.194,96.107,574.148,569.97,0.0
55955.0,STARLINK-5878,PAYLOAD,2024-06-18 22:53:11,14.9833477,0.0003068,69.9998,49.7617,269.2675,90.8132,6.2165e-05,6.49e-06,0.0,0 STARLINK-5878,1 55955U 23037AT  24170.95360872  .00000649  00000-0  62165-4 0  9991,2 55955  69.9998  49.7617 0003068 269.2675  90.8132 14.98334770 70296,6950.178,96.107,574.175,569.911,0.0
55955.0,STARLINK-5878,PAYLOAD,2024-06-19 02:05:27,14.9833585,0.0003051,69.9998,49.425,269.2908,90.7902,7.2208e-05,7.69e-06,0.0,0 STARLINK-5878,1 55955U 23037AT  24171.08712735  .00000769  00000-0  72208-4 0  9997,2 55955  69.9998  49.4250 0003051 269.2908  90.7902 14.98335850 70651,6950.175,96.107,574.16,569.919,0.0
55955.0,STARLINK-5878,PAYLOAD,2024-06-19 22:55:12,14.98335556,0.0002935,70.0,47.2366,269.9916,90.0907,3.1361e-05,2.81e-06,0.0,0 STARLINK-5878,1 55955U 23037AT  24171.95500714  .00000281  00000-0  31361-4 0  9999,2 55955  70.0000  47.2366 0002935 269.9916  90.0907 14.98335556 70446,6950.176,96.107,574.081,570.001,0.0
55955.0,STARLINK-5878,PAYLOAD,2024-06-20 02:07:28,14.98342004,0.0002893,70.0001,46.8999,270.1637,89.919,0.00010082,1.111e-05,0.0,0 STARLINK-5878,1 55955U 23037AT  24172.08852007  .00001111  00000-0  10082-3 0  9998,2 55955  70.0001  46.8999 0002893 270.1637  89.9190 14.98342004 70808,6950.156,96.106,574.031,570.01,0.0
55955.0,STARLINK-5878,PAYLOAD,2024-06-20 14:56:34,14.98256305,0.0002932,70.0005,45.5549,263.7397,96.3428,0.0011883,0.00014087,0.0,0 STARLINK-5878,1 55955U 23037AT  24172.62261993  .00014087  00000-0  11883-2 0  9991,2 55955  70.0005  45.5549 0002932 263.7397  96.3428 14.98256305 70549,6950.421,96.112,574.324,570.248,0.0
55955.0,STARLINK-5878,PAYLOAD,2024-06-20 19:44:57,14.98326482,0.0002684,70.0007,45.0485,268.7382,91.347,-7.2551e-05,-9.58e-06,0.0,0 STARLINK-5878,1 55955U 23037AT  24172.82289312 -.00000958  00000-0 -72551-4 0  9993,2 55955  70.0007  45.0485 0002684 268.7382  91.3470 14.98326482 70577,6950.204,96.107,573.934,570.203,0.0
55955.0,STARLINK-5878,PAYLOAD,2024-06-21 00:33:22,14.9832402,0.0002667,70.0005,44.5449,266.0603,94.0251,-0.00012293,-1.559e-05,0.0,0 STARLINK-5878,1 55955U 23037AT  24173.02317647 -.00001559  00000-0 -12293-3 0  9993,2 55955  70.0005  44.5449 0002667 266.0603  94.0251 14.98324020 70941,6950.211,96.107,573.93,570.223,0.0
55955.0,STARLINK-5878,PAYLOAD,2024-06-21 02:09:30,14.9832509,0.000267,70.0005,44.3765,266.0832,94.0022,-0.00010973,-1.402e-05,0.0,0 STARLINK-5878,1 55955U 23037AT  24173.08993561 -.00001402  00000-0 -10973-3 0  9994,2 55955  70.0005  44.3765 0002670 266.0832  94.0022 14.98325090 70616,6950.208,96.107,573.929,570.217,0.0
55955.0,STARLINK-5878,PAYLOAD,2024-06-21 21:23:06,14.98333764,0.0002797,70.0004,42.3561,264.8262,95.2578,-8.909e-05,-1.156e-05,0.0,0 STARLINK-5878,1 55955U 23037AT  24173.89104930 -.00001156  00000-0 -89090-4 0  9990,2 55955  70.0004  42.3561 0002797 264.8262  95.2578 14.98333764 71077,6950.181,96.107,573.99,570.102,0.0
55955.0,STARLINK-5878,PAYLOAD,2024-06-22 00:35:22,14.98333212,0.0002792,70.0003,42.0196,265.3576,94.7264,-8.4008e-05,-1.095e-05,0.0,0 STARLINK-5878,1 55955U 23037AT  24174.02456935 -.00001095  00000-0 -84008-4 0  9997,2 55955  70.0003  42.0196 0002792 265.3576  94.7264 14.98333212 70754,6950.183,96.107,573.988,570.107,0.0
55955.0,STARLINK-5878,PAYLOAD,2024-06-22 21:25:07,14.98325675,0.0003017,69.9999,39.8302,265.8424,94.239,6.3096e-05,6.6e-06,0.0,0 STARLINK-5878,1 55955U 23037AT  24174.89244975  .00000660  00000-0  63096-4 0  9990,2 55955  69.9999  39.8302 0003017 265.8424  94.2390 14.98325675 70889,6950.206,96.107,574.168,569.974,0.0
55955.0,STARLINK-5878,PAYLOAD,2024-06-22 23:01:15,14.98326598,0.0003006,69.9999,39.6618,265.6826,94.399,7.1965e-05,7.66e-06,0.0,0 STARLINK-5878,1 55955U 23037AT  24174.95920903  .00000766  00000-0  71965-4 0  9990,2 55955  69.9999  39.6618 0003006 265.6826  94.3990 14.98326598 71231,6950.203,96.107,574.158,569.979,0.0
55955.0,STARLINK-5878,PAYLOAD,2024-06-23 15:02:36,14.98328562,0.000298,70.0,37.9787,266.4476,93.6342,-1.2132e-05,-2.38e-06,0.0,0 STARLINK-5878,1 55955U 23037AT  24175.62681100 -.00000238  00000-0 -12132-4 0  9995,2 55955  70.0000  37.9787 0002980 266.4476  93.6342 14.98328562 70993,6950.197,96.107,574.133,569.991,0.0
